{
  "type": "FeatureCollection",
  "features": [
    {
      "type": "Feature",
      "properties": {
        "norad_id": 37867,
        "name": "COSMOS 2476 (744)",
        "group": "glo-ops",
        "lat": 23.740684912585195,
        "lon": -112.41965865736617,
        "alt_km": 19116.731618616424,
        "timestamp": "2025-12-08T15:42:50.051799+00:00",
        "meta_object_name": "COSMOS 2476 (744)",
        "meta_object_id": "2011-064A",
        "meta_epoch": "2025-12-07T12:05:38.490144",
        "meta_mean_motion": 2.13101284,
        "meta_eccentricity": 0.0024092,
        "meta_inclination": 65.1595,
        "meta_ra_of_asc_node": 79.3486,
        "meta_arg_of_pericenter": 233.8995,
        "meta_mean_anomaly": 117.1284,
        "meta_ephemeris_type": 0,
        "meta_classification_type": "U",
        "meta_norad_cat_id": 37867,
        "meta_element_set_no": 999,
        "meta_rev_at_epoch": 10967,
        "meta_bstar": 0,
        "meta_mean_motion_dot": -1.2e-07,
        "meta_mean_motion_ddot": 0,
        "tle_line1": "1 37867U 11064A   25341.50391771 -.00000012  00000+0  00000+0 0  9993",
        "tle_line2": "2 37867  65.1595  79.3486 0024092 233.8995 117.1284  2.13101284109676"
      },
      "geometry": {
        "type": "Point",
        "coordinates": [
          -112.41965865736617,
          23.740684912585195
        ]
      }
    },
    {
      "type": "Feature",
      "properties": {
        "norad_id": 37868,
        "name": "COSMOS 2477 (745)",
        "group": "glo-ops",
        "lat": -22.52469000809221,
        "lon": 68.33962607026963,
        "alt_km": 19142.934765321377,
        "timestamp": "2025-12-08T15:42:50.051810+00:00",
        "meta_object_name": "COSMOS 2477 (745)",
        "meta_object_id": "2011-064B",
        "meta_epoch": "2025-12-08T06:12:22.664160",
        "meta_mean_motion": 2.13102704,
        "meta_eccentricity": 0.0021182,
        "meta_inclination": 65.1663,
        "meta_ra_of_asc_node": 79.4007,
        "meta_arg_of_pericenter": 234.576,
        "meta_mean_anomaly": 156.3219,
        "meta_ephemeris_type": 0,
        "meta_classification_type": "U",
        "meta_norad_cat_id": 37868,
        "meta_element_set_no": 999,
        "meta_rev_at_epoch": 10969,
        "meta_bstar": 0,
        "meta_mean_motion_dot": -1.1e-07,
        "meta_mean_motion_ddot": 0,
        "tle_line1": "1 37868U 11064B   25342.25859565 -.00000011  00000+0  00000+0 0  9996",
        "tle_line2": "2 37868  65.1663  79.4007 0021182 234.5760 156.3219  2.13102704109691"
      },
      "geometry": {
        "type": "Point",
        "coordinates": [
          68.33962607026963,
          -22.52469000809221
        ]
      }
    },
    {
      "type": "Feature",
      "properties": {
        "norad_id": 37869,
        "name": "COSMOS 2475 (743)",
        "group": "glo-ops",
        "lat": -57.94508791528711,
        "lon": 31.846434609805854,
        "alt_km": 19086.834020841805,
        "timestamp": "2025-12-08T15:42:50.051822+00:00",
        "meta_object_name": "COSMOS 2475 (743)",
        "meta_object_id": "2011-064C",
        "meta_epoch": "2025-12-07T08:11:48.953184",
        "meta_mean_motion": 2.13101364,
        "meta_eccentricity": 0.00262336,
        "meta_inclination": 65.1729,
        "meta_ra_of_asc_node": 79.4516,
        "meta_arg_of_pericenter": 248.5614,
        "meta_mean_anomaly": 114.7737,
        "meta_ephemeris_type": 0,
        "meta_classification_type": "U",
        "meta_norad_cat_id": 37869,
        "meta_element_set_no": 999,
        "meta_rev_at_epoch": 10968,
        "meta_bstar": 0,
        "meta_mean_motion_dot": -1.3e-07,
        "meta_mean_motion_ddot": 0,
        "tle_line1": "1 37869U 11064C   25341.34153881 -.00000013  00000+0  00000+0 0  9996",
        "tle_line2": "2 37869  65.1729  79.4516 0026233 248.5614 114.7737  2.13101364109688"
      },
      "geometry": {
        "type": "Point",
        "coordinates": [
          31.846434609805854,
          -57.94508791528711
        ]
      }
    },
    {
      "type": "Feature",
      "properties": {
        "norad_id": 39155,
        "name": "COSMOS 2485 (747)",
        "group": "glo-ops",
        "lat": -20.007952815412896,
        "lon": -90.36210731277559,
        "alt_km": 19076.887178038673,
        "timestamp": "2025-12-08T15:42:50.051834+00:00",
        "meta_object_name": "COSMOS 2485 (747)",
        "meta_object_id": "2013-019A",
        "meta_epoch": "2025-12-05T02:32:45.729312",
        "meta_mean_motion": 2.13102875,
        "meta_eccentricity": 0.00246247,
        "meta_inclination": 65.3094,
        "meta_ra_of_asc_node": 80.124,
        "meta_arg_of_pericenter": 229.2984,
        "meta_mean_anomaly": 130.4888,
        "meta_ephemeris_type": 0,
        "meta_classification_type": "U",
        "meta_norad_cat_id": 39155,
        "meta_element_set_no": 999,
        "meta_rev_at_epoch": 9814,
        "meta_bstar": 0,
        "meta_mean_motion_dot": -2.1e-07,
        "meta_mean_motion_ddot": 0,
        "tle_line1": "1 39155U 13019A   25339.10608483 -.00000021  00000+0  00000+0 0  9991",
        "tle_line2": "2 39155  65.3094  80.1240 0024624 229.2984 130.4888  2.13102875 98144"
      },
      "geometry": {
        "type": "Point",
        "coordinates": [
          -90.36210731277559,
          -20.007952815412896
        ]
      }
    },
    {
      "type": "Feature",
      "properties": {
        "norad_id": 39620,
        "name": "COSMOS 2492 (754)",
        "group": "glo-ops",
        "lat": -47.304579083628376,
        "lon": 170.1466268417258,
        "alt_km": 19127.58792964737,
        "timestamp": "2025-12-08T15:42:50.051845+00:00",
        "meta_object_name": "COSMOS 2492 (754)",
        "meta_object_id": "2014-012A",
        "meta_epoch": "2025-12-06T22:36:05.505696",
        "meta_mean_motion": 2.13103091,
        "meta_eccentricity": 0.00141965,
        "meta_inclination": 65.4111,
        "meta_ra_of_asc_node": 320.4673,
        "meta_arg_of_pericenter": 311.6327,
        "meta_mean_anomaly": 48.2397,
        "meta_ephemeris_type": 0,
        "meta_classification_type": "U",
        "meta_norad_cat_id": 39620,
        "meta_element_set_no": 999,
        "meta_rev_at_epoch": 9114,
        "meta_bstar": 0,
        "meta_mean_motion_dot": -4.9e-07,
        "meta_mean_motion_ddot": 0,
        "tle_line1": "1 39620U 14012A   25340.94173039 -.00000049  00000+0  00000+0 0  9990",
        "tle_line2": "2 39620  65.4111 320.4673 0014196 311.6327  48.2397  2.13103091 91147"
      },
      "geometry": {
        "type": "Point",
        "coordinates": [
          170.1466268417258,
          -47.304579083628376
        ]
      }
    },
    {
      "type": "Feature",
      "properties": {
        "norad_id": 40001,
        "name": "COSMOS 2500 (755)",
        "group": "glo-ops",
        "lat": 62.7749326220144,
        "lon": 76.9713420613516,
        "alt_km": 19132.334662820653,
        "timestamp": "2025-12-08T15:42:50.051857+00:00",
        "meta_object_name": "COSMOS 2500 (755)",
        "meta_object_id": "2014-032A",
        "meta_epoch": "2025-12-08T01:15:37.591488",
        "meta_mean_motion": 2.13105896,
        "meta_eccentricity": 0.00081247,
        "meta_inclination": 65.3461,
        "meta_ra_of_asc_node": 320.1922,
        "meta_arg_of_pericenter": 219.298,
        "meta_mean_anomaly": 140.6379,
        "meta_ephemeris_type": 0,
        "meta_classification_type": "U",
        "meta_norad_cat_id": 40001,
        "meta_element_set_no": 999,
        "meta_rev_at_epoch": 8938,
        "meta_bstar": 0,
        "meta_mean_motion_dot": -4.9e-07,
        "meta_mean_motion_ddot": 0,
        "tle_line1": "1 40001U 14032A   25342.05251842 -.00000049  00000+0  00000+0 0  9990",
        "tle_line2": "2 40001  65.3461 320.1922 0008124 219.2980 140.6379  2.13105896 89380"
      },
      "geometry": {
        "type": "Point",
        "coordinates": [
          76.9713420613516,
          62.7749326220144
        ]
      }
    },
    {
      "type": "Feature",
      "properties": {
        "norad_id": 40315,
        "name": "COSMOS 2501 (702K)",
        "group": "glo-ops",
        "lat": -62.72886470336324,
        "lon": 91.35888444721827,
        "alt_km": 19109.39453925437,
        "timestamp": "2025-12-08T15:42:50.051868+00:00",
        "meta_object_name": "COSMOS 2501 (702K)",
        "meta_object_id": "2014-075A",
        "meta_epoch": "2025-12-07T20:13:51.362112",
        "meta_mean_motion": 2.13101338,
        "meta_eccentricity": 0.00201356,
        "meta_inclination": 63.6139,
        "meta_ra_of_asc_node": 196.9947,
        "meta_arg_of_pericenter": 204.4913,
        "meta_mean_anomaly": 155.4908,
        "meta_ephemeris_type": 0,
        "meta_classification_type": "U",
        "meta_norad_cat_id": 40315,
        "meta_element_set_no": 999,
        "meta_rev_at_epoch": 8577,
        "meta_bstar": 0,
        "meta_mean_motion_dot": 5.4e-07,
        "meta_mean_motion_ddot": 0,
        "tle_line1": "1 40315U 14075A   25341.84295558  .00000054  00000+0  00000+0 0  9998",
        "tle_line2": "2 40315  63.6139 196.9947 0020135 204.4913 155.4908  2.13101338 85773"
      },
      "geometry": {
        "type": "Point",
        "coordinates": [
          91.35888444721827,
          -62.72886470336324
        ]
      }
    }
  ]
}